start=new Date('2022-11-30T00:00:00.000Z').valueOf();
sats=[{"EPOCH":"2022-11-29T19:27:41.764320","MEAN_MOTION_DOT":"0.00001516","MEAN_ELEMENT_THEORY":"SGP4","OBJECT_ID":"2021-104F","COUNTRY_CODE":"US","APOAPSIS":"541.945","INCLINATION":"53.2170","MEAN_MOTION_DDOT":"0.0000000000000","LAUNCH_DATE":"2021-11-13","REF_FRAME":"TEME","RCS_SIZE":"LARGE","REV_AT_EPOCH":"5823","TLE_LINE2":"2 49413  53.2170 187.6337 0003150  38.2848 321.8368 15.08833299 58235","GP_ID":"219111976","TLE_LINE1":"1 49413U 21104F   22333.81090005  .00001516  00000-0  11335-3 0  9994","MEAN_MOTION":"15.08833299","ARG_OF_PERICENTER":"38.2848","RA_OF_ASC_NODE":"187.6337","SITE":"AFETR","PERIAPSIS":"537.587","MEAN_ANOMALY":"321.8368","EPHEMERIS_TYPE":"0","SEMIMAJOR_AXIS":"6917.901","CENTER_NAME":"EARTH","ELEMENT_SET_NO":"999","OBJECT_NAME":"STARLINK-3157","PERIOD":"95.438","NORAD_CAT_ID":"49413","FILE":"3673849","TIME_SYSTEM":"UTC","ECCENTRICITY":"0.00031500","DECAY_DATE":null,"CLASSIFICATION_TYPE":"U","BSTAR":"0.00011335000000","OBJECT_TYPE":"PAYLOAD"},{"MEAN_ANOMALY":"321.5922","EPHEMERIS_TYPE":"0","SEMIMAJOR_AXIS":"6917.865","CENTER_NAME":"EARTH","ELEMENT_SET_NO":"999","OBJECT_NAME":"STARLINK-3146","PERIOD":"95.437","NORAD_CAT_ID":"49414","FILE":"3673336","TIME_SYSTEM":"UTC","ECCENTRICITY":"0.00028540","DECAY_DATE":null,"CLASSIFICATION_TYPE":"U","OBJECT_TYPE":"PAYLOAD","BSTAR":"0.00015968000000","MEAN_MOTION_DOT":"0.00002254","MEAN_ELEMENT_THEORY":"SGP4","EPOCH":"2022-11-29T08:29:15.631296","OBJECT_ID":"2021-104G","COUNTRY_CODE":"US","APOAPSIS":"541.704","LAUNCH_DATE":"2021-11-13","MEAN_MOTION_DDOT":"0.0000000000000","INCLINATION":"53.2169","REF_FRAME":"TEME","RCS_SIZE":"LARGE","REV_AT_EPOCH":"5802","GP_ID":"219073358","TLE_LINE2":"2 49414  53.2169 199.6848 0002854  38.5273 321.5922 15.08845145 58022","TLE_LINE1":"1 49414U 21104G   22333.35365314  .00002254  00000-0  15968-3 0  9998","MEAN_MOTION":"15.08845145","ARG_OF_PERICENTER":"38.5273","RA_OF_ASC_NODE":"199.6848","SITE":"AFETR","PERIAPSIS":"537.755"},{"CLASSIFICATION_TYPE":"U","BSTAR":"0.00014454000000","OBJECT_TYPE":"PAYLOAD","FILE":"3673849","NORAD_CAT_ID":"49415","TIME_SYSTEM":"UTC","ECCENTRICITY":"0.00031560","DECAY_DATE":null,"CENTER_NAME":"EARTH","ELEMENT_SET_NO":"999","OBJECT_NAME":"STARLINK-3159","PERIOD":"95.438","EPHEMERIS_TYPE":"0","MEAN_ANOMALY":"325.4653","SEMIMAJOR_AXIS":"6917.901","ARG_OF_PERICENTER":"34.6545","MEAN_MOTION":"15.08833130","RA_OF_ASC_NODE":"188.5446","SITE":"AFETR","PERIAPSIS":"537.583","REV_AT_EPOCH":"5819","TLE_LINE2":"2 49415  53.2165 188.5446 0003156  34.6545 325.4653 15.08833130 58198","GP_ID":"219112978","TLE_LINE1":"1 49415U 21104H   22333.60850506  .00002012  00000-0  14454-3 0  9990","INCLINATION":"53.2165","MEAN_MOTION_DDOT":"0.0000000000000","LAUNCH_DATE":"2021-11-13","REF_FRAME":"TEME","RCS_SIZE":"LARGE","EPOCH":"2022-11-29T14:36:14.837184","MEAN_MOTION_DOT":"0.00002012","MEAN_ELEMENT_THEORY":"SGP4","OBJECT_ID":"2021-104H","COUNTRY_CODE":"US","APOAPSIS":"541.950"},{"LAUNCH_DATE":"2021-11-13","INCLINATION":"53.2173","MEAN_MOTION_DDOT":"0.0000000000000","REF_FRAME":"TEME","RCS_SIZE":"LARGE","MEAN_MOTION_DOT":"0.00000205","MEAN_ELEMENT_THEORY":"SGP4","EPOCH":"2022-11-29T08:18:40.696704","OBJECT_ID":"2021-104J","COUNTRY_CODE":"US","APOAPSIS":"541.646","ARG_OF_PERICENTER":"39.9485","MEAN_MOTION":"15.08834362","RA_OF_ASC_NODE":"199.7122","SITE":"AFETR","PERIAPSIS":"537.879","REV_AT_EPOCH":"5802","GP_ID":"219074360","TLE_LINE2":"2 49416  53.2173 199.7122 0002723  39.9485 320.1708 15.08834362 58026","TLE_LINE1":"1 49416U 21104J   22333.34630436  .00000205  00000-0  31035-4 0  9997","CENTER_NAME":"EARTH","ELEMENT_SET_NO":"999","OBJECT_NAME":"STARLINK-3133","PERIOD":"95.438","MEAN_ANOMALY":"320.1708","EPHEMERIS_TYPE":"0","SEMIMAJOR_AXIS":"6917.898","CLASSIFICATION_TYPE":"U","BSTAR":"0.00003103500000","OBJECT_TYPE":"PAYLOAD","NORAD_CAT_ID":"49416","FILE":"3673336","TIME_SYSTEM":"UTC","ECCENTRICITY":"0.00027230","DECAY_DATE":null},{"OBJECT_ID":"2021-104K","EPOCH":"2022-11-29T16:06:19.981440","MEAN_ELEMENT_THEORY":"SGP4","MEAN_MOTION_DOT":"0.00001478","APOAPSIS":"542.121","COUNTRY_CODE":"US","MEAN_MOTION_DDOT":"0.0000000000000","INCLINATION":"53.2157","LAUNCH_DATE":"2021-11-13","RCS_SIZE":"LARGE","REF_FRAME":"TEME","REV_AT_EPOCH":"5820","TLE_LINE1":"1 49417U 21104K   22333.67106460  .00001478  00000-0  11096-3 0  9996","TLE_LINE2":"2 49417  53.2157 188.2593 0003422  31.1907 328.9288 15.08837422 58203","GP_ID":"219111477","RA_OF_ASC_NODE":"188.2593","ARG_OF_PERICENTER":"31.1907","MEAN_MOTION":"15.08837422","PERIAPSIS":"537.386","SITE":"AFETR","MEAN_ANOMALY":"328.9288","EPHEMERIS_TYPE":"0","SEMIMAJOR_AXIS":"6917.888","ELEMENT_SET_NO":"999","CENTER_NAME":"EARTH","PERIOD":"95.438","OBJECT_NAME":"STARLINK-3154","TIME_SYSTEM":"UTC","FILE":"3673849","NORAD_CAT_ID":"49417","DECAY_DATE":null,"ECCENTRICITY":"0.00034220","CLASSIFICATION_TYPE":"U","BSTAR":"0.00011096000000","OBJECT_TYPE":"PAYLOAD"},{"RA_OF_ASC_NODE":"198.2525","MEAN_MOTION":"15.08830615","ARG_OF_PERICENTER":"38.9682","PERIAPSIS":"537.571","SITE":"AFETR","REV_AT_EPOCH":"5806","TLE_LINE1":"1 49418U 21104L   22333.67382429  .00000465  00000-0  47362-4 0  9999","GP_ID":"219112227","TLE_LINE2":"2 49418  53.2172 198.2525 0003184  38.9682 321.1539 15.08830615 58062","LAUNCH_DATE":"2021-11-13","INCLINATION":"53.2172","MEAN_MOTION_DDOT":"0.0000000000000","RCS_SIZE":"LARGE","REF_FRAME":"TEME","OBJECT_ID":"2021-104L","MEAN_MOTION_DOT":"0.00000465","MEAN_ELEMENT_THEORY":"SGP4","EPOCH":"2022-11-29T16:10:18.418656","APOAPSIS":"541.977","COUNTRY_CODE":"US","CLASSIFICATION_TYPE":"U","OBJECT_TYPE":"PAYLOAD","BSTAR":"0.00004736200000","TIME_SYSTEM":"UTC","FILE":"3673849","NORAD_CAT_ID":"49418","DECAY_DATE":null,"ECCENTRICITY":"0.00031840","ELEMENT_SET_NO":"999","CENTER_NAME":"EARTH","PERIOD":"95.438","OBJECT_NAME":"STARLINK-3111","EPHEMERIS_TYPE":"0","MEAN_ANOMALY":"321.1539","SEMIMAJOR_AXIS":"6917.909"},{"APOAPSIS":"541.809","COUNTRY_CODE":"US","OBJECT_ID":"2021-104M","EPOCH":"2022-11-29T15:54:24.227424","MEAN_MOTION_DOT":"0.00002378","MEAN_ELEMENT_THEORY":"SGP4","RCS_SIZE":"LARGE","REF_FRAME":"TEME","MEAN_MOTION_DDOT":"0.0000000000000","INCLINATION":"53.2169","LAUNCH_DATE":"2021-11-13","TLE_LINE1":"1 49419U 21104M   22333.66278041  .00002378  00000-0  16747-3 0  9990","TLE_LINE2":"2 49419  53.2169 198.3074 0002969  37.0428 323.0769 15.08836902 58068","GP_ID":"219112479","REV_AT_EPOCH":"5806","PERIAPSIS":"537.701","SITE":"AFETR","RA_OF_ASC_NODE":"198.3074","ARG_OF_PERICENTER":"37.0428","MEAN_MOTION":"15.08836902","SEMIMAJOR_AXIS":"6917.890","EPHEMERIS_TYPE":"0","MEAN_ANOMALY":"323.0769","PERIOD":"95.438","OBJECT_NAME":"STARLINK-3120","ELEMENT_SET_NO":"999","CENTER_NAME":"EARTH","DECAY_DATE":null,"ECCENTRICITY":"0.00029690","TIME_SYSTEM":"UTC","FILE":"3673849","NORAD_CAT_ID":"49419","BSTAR":"0.00016747000000","OBJECT_TYPE":"PAYLOAD","CLASSIFICATION_TYPE":"U"},{"ECCENTRICITY":"0.00023250","DECAY_DATE":null,"NORAD_CAT_ID":"49420","FILE":"3673849","TIME_SYSTEM":"UTC","OBJECT_TYPE":"PAYLOAD","BSTAR":"0.00003074700000","CLASSIFICATION_TYPE":"U","SEMIMAJOR_AXIS":"6917.925","EPHEMERIS_TYPE":"0","MEAN_ANOMALY":"321.8396","OBJECT_NAME":"STARLINK-3110","PERIOD":"95.438","CENTER_NAME":"EARTH","ELEMENT_SET_NO":"999","TLE_LINE2":"2 49420  53.2176 198.2674 0002325  38.2761 321.8396 15.08825447 58066","GP_ID":"219113228","TLE_LINE1":"1 49420U 21104N   22333.67014966  .00000201  00000-0  30747-4 0  9997","REV_AT_EPOCH":"5806","SITE":"AFETR","PERIAPSIS":"538.181","MEAN_MOTION":"15.08825447","ARG_OF_PERICENTER":"38.2761","RA_OF_ASC_NODE":"198.2674","COUNTRY_CODE":"US","APOAPSIS":"541.398","EPOCH":"2022-11-29T16:05:00.930624","MEAN_ELEMENT_THEORY":"SGP4","MEAN_MOTION_DOT":"0.00000201","OBJECT_ID":"2021-104N","REF_FRAME":"TEME","RCS_SIZE":"LARGE","INCLINATION":"53.2176","MEAN_MOTION_DDOT":"0.0000000000000","LAUNCH_DATE":"2021-11-13"},{"BSTAR":"0.00003113400000","OBJECT_TYPE":"PAYLOAD","CLASSIFICATION_TYPE":"U","DECAY_DATE":null,"ECCENTRICITY":"0.00028570","TIME_SYSTEM":"UTC","NORAD_CAT_ID":"49421","FILE":"3673849","PERIOD":"95.438","OBJECT_NAME":"STARLINK-3112","ELEMENT_SET_NO":"999","CENTER_NAME":"EARTH","SEMIMAJOR_AXIS":"6917.895","MEAN_ANOMALY":"330.3632","EPHEMERIS_TYPE":"0","PERIAPSIS":"537.784","SITE":"AFETR","RA_OF_ASC_NODE":"198.0409","MEAN_MOTION":"15.08835090","ARG_OF_PERICENTER":"29.7522","TLE_LINE1":"1 49421U 21104P   22333.72166056  .00000207  00000-0  31134-4 0  9999","TLE_LINE2":"2 49421  53.2162 198.0409 0002857  29.7522 330.3632 15.08835090 58070","GP_ID":"219111977","REV_AT_EPOCH":"5807","RCS_SIZE":"LARGE","REF_FRAME":"TEME","INCLINATION":"53.2162","MEAN_MOTION_DDOT":"0.0000000000000","LAUNCH_DATE":"2021-11-13","APOAPSIS":"541.737","COUNTRY_CODE":"US","OBJECT_ID":"2021-104P","EPOCH":"2022-11-29T17:19:11.472384","MEAN_ELEMENT_THEORY":"SGP4","MEAN_MOTION_DOT":"0.00000207"},{"SITE":"AFETR","PERIAPSIS":"537.967","MEAN_MOTION":"15.08837679","ARG_OF_PERICENTER":"37.3026","RA_OF_ASC_NODE":"198.2925","GP_ID":"219111728","TLE_LINE2":"2 49422  53.2158 198.2925 0002581  37.3026 322.8145 15.08837679 58068","TLE_LINE1":"1 49422U 21104Q   22333.66646002  .00001940  00000-0  13997-3 0  9998","REV_AT_EPOCH":"5806","REF_FRAME":"TEME","RCS_SIZE":"LARGE","LAUNCH_DATE":"2021-11-13","MEAN_MOTION_DDOT":"0.0000000000000","INCLINATION":"53.2158","COUNTRY_CODE":"US","APOAPSIS":"541.538","MEAN_MOTION_DOT":"0.00001940","MEAN_ELEMENT_THEORY":"SGP4","EPOCH":"2022-11-29T15:59:42.145728","OBJECT_ID":"2021-104Q","OBJECT_TYPE":"PAYLOAD","BSTAR":"0.00013997000000","CLASSIFICATION_TYPE":"U","ECCENTRICITY":"0.00025810","DECAY_DATE":null,"FILE":"3673849","NORAD_CAT_ID":"49422","TIME_SYSTEM":"UTC","OBJECT_NAME":"STARLINK-3161","PERIOD":"95.438","CENTER_NAME":"EARTH","ELEMENT_SET_NO":"999","SEMIMAJOR_AXIS":"6917.887","EPHEMERIS_TYPE":"0","MEAN_ANOMALY":"322.8145"}];
